[{"OBJECT_NAME":"STARLINK-31520","OBJECT_ID":"2024-046K","EPOCH":"2026-03-09T12:42:14.261472","MEAN_MOTION":15.30191029,"ECCENTRICITY":0.00012575,"INCLINATION":53.1606,"RA_OF_ASC_NODE":156.1783,"ARG_OF_PERICENTER":93.81,"MEAN_ANOMALY":266.3045,"EPHEMERIS_TYPE":0,"CLASSIFICATION_TYPE":"U","NORAD_CAT_ID":59210,"ELEMENT_SET_NO":999,"REV_AT_EPOCH":11302,"BSTAR":-6.1777787e-5,"MEAN_MOTION_DOT":-2.188e-5,"MEAN_MOTION_DDOT":0},{"OBJECT_NAME":"TOMORROW-S1","OBJECT_ID":"2024-149M","EPOCH":"2026-03-09T17:23:34.533600","MEAN_MOTION":15.31198363,"ECCENTRICITY":0.00018188,"INCLINATION":97.3791,"RA_OF_ASC_NODE":149.6044,"ARG_OF_PERICENTER":207.204,"MEAN_ANOMALY":152.9106,"EPHEMERIS_TYPE":0,"CLASSIFICATION_TYPE":"U","NORAD_CAT_ID":60479,"ELEMENT_SET_NO":999,"REV_AT_EPOCH":8686,"BSTAR":0.0002885603,"MEAN_MOTION_DOT":8.62e-5,"MEAN_MOTION_DDOT":0}]
